OBJECT_NAME,OBJECT_ID,EPOCH,MEAN_MOTION,ECCENTRICITY,INCLINATION,RA_OF_ASC_NODE,ARG_OF_PERICENTER,MEAN_ANOMALY,EPHEMERIS_TYPE,CLASSIFICATION_TYPE,NORAD_CAT_ID,ELEMENT_SET_NO,REV_AT_EPOCH,BSTAR,MEAN_MOTION_DOT,MEAN_MOTION_DDOT
INTELSAT 23 (IS-23),2012-057A,2026-07-02T10:18:31.506048,1.00267382,.00003052,0.0141,3.9446,202.1067,176.0338,0,U,38867,999,5010,0,-.274E-5,0
FM-6,2013-058A,2026-07-02T13:25:44.224032,1.00271407,.00019399,0.0187,48.4119,131.6012,185.7008,0,U,39360,999,4622,0,-.5E-7,0
INTELSAT 30 (IS-30),2014-062A,2026-07-02T06:41:10.368672,1.00271490,.00013653,0.0230,52.7224,350.4301,242.4035,0,U,40271,999,694,0,-.14E-5,0
DIRECTV 14,2014-078B,2026-07-02T10:05:17.774304,1.00271936,.00002932,0.0102,26.2148,2.4668,303.8682,0,U,40333,999,4219,0,-.115E-5,0
DIRECTV 15,2015-026A,2026-07-02T09:13:38.786016,1.00269097,.00005025,0.0164,65.5164,342.1104,268.3228,0,U,40663,999,4061,0,-.91E-6,0
SKY MEXICO-1,2015-026B,2026-07-02T06:45:47.426688,1.00270354,.00026506,0.0183,34.3039,85.6844,182.9749,0,U,40664,999,4060,0,-.224E-5,0
INTELSAT 34 (IS-34),2015-039A,2026-07-02T13:42:57.573216,1.00269667,.00004688,0.0108,13.9056,22.0921,34.8455,0,U,40874,999,3978,0,-.275E-5,0
INTELSAT 31 (IS-31),2016-035A,2026-07-01T13:23:37.148640,1.00270123,.00006522,0.0162,287.8314,350.1203,107.5034,0,U,41581,999,3682,0,-.14E-5,0
INTELSAT 36 (IS-36),2016-053A,2026-07-02T09:10:21.235008,1.00270659,.00020242,0.0112,23.1610,324.0014,139.3450,0,U,41747,999,3611,0,-.14E-6,0
INTELSAT 32E (IS-32E),2017-007B,2026-07-02T00:05:11.600736,1.00267253,.0000343,0.0229,30.0875,311.5669,256.5154,0,U,41945,999,3437,0,0,0
INTELSAT 35E (IS-35E),2017-041A,2026-07-02T10:37:24.247200,1.00271803,.00020416,0.0226,34.7368,63.7178,306.8757,0,U,42818,999,3296,0,0,0
INTELSAT 37E (IS-37E),2017-059A,2026-07-02T08:45:46.093248,1.00270692,.00028424,0.0252,44.1343,59.0259,290.6893,0,U,42950,999,3221,0,0,0
AZERSPACE 2 (IS-38),2018-074A,2026-07-02T10:46:16.472064,1.00271685,.00016051,0.0187,35.8650,70.9304,20.3640,0,U,43632,999,2860,0,.147E-5,0
HORIZONS-3E,2018-074B,2026-07-02T12:53:38.919264,1.00267200,.00007354,0.0056,102.9558,164.5904,15.4578,0,U,43633,999,2849,0,0,0
AT&T T-16,2019-034A,2026-07-02T08:06:38.461824,1.00273787,.00004185,0.0170,65.0064,285.9116,310.2612,0,U,44333,999,2578,0,-.105E-5,0
INTELSAT 39 (IS-39),2019-049B,2026-07-02T10:51:18.402912,1.00269540,.00009544,0.0215,27.0738,315.5013,162.6960,0,U,44476,999,2528,0,0,0
GALAXY 30 (G-30),2020-056C,2026-07-02T13:23:14.462592,1.00271482,.00021657,0.0213,27.0649,75.3952,253.9468,0,U,46114,999,2144,0,0,0
GALAXY 33 (G-33),2022-128A,2026-07-02T12:27:33.660576,1.00274839,.00025692,0.0112,40.1946,55.7468,238.5150,0,U,54026,999,1389,0,.89E-6,0
GALAXY 34 (G-34),2022-128B,2026-07-02T11:25:38.719776,1.00272688,.00019205,0.0120,27.3706,75.7855,219.7727,0,U,54027,999,1406,0,.69E-6,0
GALAXY 31 (G-31),2022-153A,2026-07-02T13:24:21.856320,1.00272134,.00015646,0.0137,81.1869,18.0069,261.4853,0,U,54243,999,728,0,.24E-6,0
GALAXY 32 (G-32),2022-153B,2026-07-02T13:32:58.530048,1.00272409,.00019885,0.0105,15.3279,35.2758,342.2488,0,U,54244,999,1329,0,-.164E-5,0
GALAXY 35 (G-35),2022-170A,2026-07-02T13:32:21.090336,1.00272915,.00023072,0.0164,55.7529,46.1625,288.6647,0,U,54741,999,1304,0,-.152E-5,0
GALAXY 36 (G-36),2022-170B,2026-07-02T13:33:28.483200,1.00272549,.0002928,0.0048,83.7692,9.1341,302.0676,0,U,54742,999,1292,0,-.175E-5,0
GALAXY 37 (G-37),2023-112A,2026-07-02T13:22:44.511168,1.00271630,.00020976,0.0185,349.2946,113.4451,251.5387,0,U,57493,999,1069,0,.59E-6,0
