INTELSAT 23 (IS-23)     
1 38867U 12057A   26183.42953132 -.00000274  00000+0  00000+0 0  9998
2 38867   0.0141   3.9446 0000305 202.1067 176.0338  1.00267382 50105
FM-6                    
1 39360U 13058A   26183.55953963 -.00000005  00000+0  00000+0 0  9997
2 39360   0.0187  48.4119 0001939 131.6012 185.7008  1.00271407 46227
INTELSAT 30 (IS-30)     
1 40271U 14062A   26183.27859223 -.00000140  00000+0  00000+0 0  9999
2 40271   0.0230  52.7224 0001365 350.4301 242.4035  1.00271490  6947
DIRECTV 14              
1 40333U 14078B   26183.42034461 -.00000115  00000+0  00000+0 0  9993
2 40333   0.0102  26.2148 0000293   2.4668 303.8682  1.00271936 42196
DIRECTV 15              
1 40663U 15026A   26183.38447669 -.00000091  00000+0  00000+0 0  9999
2 40663   0.0164  65.5164 0000502 342.1104 268.3228  1.00269097 40617
SKY MEXICO-1            
1 40664U 15026B   26183.28179892 -.00000224  00000+0  00000+0 0  9997
2 40664   0.0183  34.3039 0002650  85.6844 182.9749  1.00270354 40606
INTELSAT 34 (IS-34)     
1 40874U 15039A   26183.57149969 -.00000275  00000+0  00000+0 0  9994
2 40874   0.0108  13.9056 0000468  22.0921  34.8455  1.00269667 39785
INTELSAT 31 (IS-31)     
1 41581U 16035A   26182.55806885 -.00000140  00000+0  00000+0 0  9992
2 41581   0.0162 287.8314 0000652 350.1203 107.5034  1.00270123 36825
INTELSAT 36 (IS-36)     
1 41747U 16053A   26183.38219022 -.00000014  00000+0  00000+0 0  9999
2 41747   0.0112  23.1610 0002024 324.0014 139.3450  1.00270659 36110
INTELSAT 32E (IS-32E)   
1 41945U 17007B   26183.00360649  .00000000  00000+0  00000+0 0  9994
2 41945   0.0229  30.0875 0000343 311.5669 256.5154  1.00267253 34373
INTELSAT 35E (IS-35E)   
1 42818U 17041A   26183.44264175  .00000000  00000+0  00000+0 0  9997
2 42818   0.0226  34.7368 0002041  63.7178 306.8757  1.00271803 32963
INTELSAT 37E (IS-37E)   
1 42950U 17059A   26183.36511682  .00000000  00000+0  00000+0 0  9992
2 42950   0.0252  44.1343 0002842  59.0259 290.6893  1.00270692 32218
AZERSPACE 2 (IS-38)     
1 43632U 18074A   26183.44880176  .00000147  00000+0  00000+0 0  9996
2 43632   0.0187  35.8650 0001605  70.9304  20.3640  1.00271685 28609
HORIZONS-3E             
1 43633U 18074B   26183.53725601  .00000000  00000+0  00000+0 0  9996
2 43633   0.0056 102.9558 0000735 164.5904  15.4578  1.00267200 28497
AT&T T-16               
1 44333U 19034A   26183.33794516 -.00000105  00000+0  00000+0 0  9997
2 44333   0.0170  65.0064 0000418 285.9116 310.2612  1.00273787 25785
INTELSAT 39 (IS-39)     
1 44476U 19049B   26183.45229633  .00000000  00000+0  00000+0 0  9990
2 44476   0.0215  27.0738 0000954 315.5013 162.6960  1.00269540 25282
GALAXY 30 (G-30)        
1 46114U 20056C   26183.55780628  .00000000  00000+0  00000+0 0  9998
2 46114   0.0213  27.0649 0002165  75.3952 253.9468  1.00271482 21440
GALAXY 33 (G-33)        
1 54026U 22128A   26183.51913959  .00000089  00000+0  00000+0 0  9999
2 54026   0.0112  40.1946 0002569  55.7468 238.5150  1.00274839 13893
GALAXY 34 (G-34)        
1 54027U 22128B   26183.47614259  .00000069  00000+0  00000+0 0  9994
2 54027   0.0120  27.3706 0001920  75.7855 219.7727  1.00272688 14067
GALAXY 31 (G-31)        
1 54243U 22153A   26183.55858630  .00000024  00000+0  00000+0 0  9995
2 54243   0.0137  81.1869 0001564  18.0069 261.4853  1.00272134  7280
GALAXY 32 (G-32)        
1 54244U 22153B   26183.56456632 -.00000164  00000+0  00000+0 0  9999
2 54244   0.0105  15.3279 0001988  35.2758 342.2488  1.00272409 13291
GALAXY 35 (G-35)        
1 54741U 22170A   26183.56413299 -.00000152  00000+0  00000+0 0  9999
2 54741   0.0164  55.7529 0002307  46.1625 288.6647  1.00272915 13049
GALAXY 36 (G-36)        
1 54742U 22170B   26183.56491300 -.00000175  00000+0  00000+0 0  9994
2 54742   0.0048  83.7692 0002928   9.1341 302.0676  1.00272549 12928
GALAXY 37 (G-37)        
1 57493U 23112A   26183.55745962  .00000059  00000+0  00000+0 0  9992
2 57493   0.0185 349.2946 0002097 113.4451 251.5387  1.00271630 10695
